STARLINK-30358          
1 57879U 23144R   26067.98805295 -.00003016  00000+0 -10013-3 0  9996
2 57879  43.0019 288.8588 0001714 277.1057  82.9600 15.27573323137536
TEVEL2-1                
1 63217U 25052H   26068.64782323  .00020683  00000+0  70600-3 0  9994
2 63217  97.3991 324.7682 0004767 104.8919 255.2849 15.30341923 54855
